1 27424U 02022A   10007.08011020  .00000152  00000-0  43840-4 0  5295
2 27424 098.2030 310.9777 0000511 100.4414 259.6872 14.57114328408454